NORAD_CAT_ID,OBJECT_NAME,OBJECT_TYPE,EPOCH,MEAN_MOTION,ECCENTRICITY,INCLINATION,RA_OF_ASC_NODE,ARG_OF_PERICENTER,MEAN_ANOMALY,BSTAR,MEAN_MOTION_DOT,MEAN_MOTION_DDOT,TLE_LINE0,TLE_LINE1,TLE_LINE2,SEMIMAJOR_AXIS,PERIOD,APOGEE,PERIGEE,DECAYED
49142.0,STARLINK-3042,PAYLOAD,2024-04-27 04:21:46,14.98376753,0.0002893,69.9999,172.7804,263.2267,96.8563,0.00052065,6.132e-05,0.0,0 STARLINK-3042,1 49142U 21082N   24118.18178716  .00006132  00000-0  52065-3 0  9991,2 49142  69.9999 172.7804 0002893 263.2267  96.8563 14.98376753144887,6950.048,96.104,573.924,569.903,0.0
49142.0,STARLINK-3042,PAYLOAD,2024-04-27 12:22:29,14.98331129,0.0002943,69.9997,171.9384,275.0283,85.054,-4.0544e-05,-5.77e-06,0.0,0 STARLINK-3042,1 49142U 21082N   24118.51561884 -.00000577  00000-0 -40544-4 0  9999,2 49142  69.9997 171.9384 0002943 275.0283  85.0540 14.98331129144933,6950.189,96.107,574.1,570.009,0.0
49142.0,STARLINK-3042,PAYLOAD,2024-04-27 13:58:37,14.9833042,0.0002889,69.9997,171.7699,272.3386,87.7442,-5.0509e-05,-6.96e-06,0.0,0 STARLINK-3042,1 49142U 21082N   24118.58237918 -.00000696  00000-0 -50509-4 0  9998,2 49142  69.9997 171.7699 0002889 272.3386  87.7442 14.98330420144947,6950.192,96.107,574.065,570.049,0.0
49142.0,STARLINK-3042,PAYLOAD,2024-04-27 20:23:10,14.98323673,0.000286,69.9998,171.0968,268.9049,91.1782,-0.0001074,-1.374e-05,0.0,0 STARLINK-3042,1 49142U 21082N   24118.84942458 -.00001374  00000-0 -10740-3 0  9995,2 49142  69.9998 171.0968 0002860 268.9049  91.1782 14.98323673144988,6950.212,96.107,574.065,570.09,0.0
49142.0,STARLINK-3042,PAYLOAD,2024-04-28 12:24:31,14.98319171,0.000305,69.9996,169.4135,268.3875,91.6935,-0.00012774,-1.616e-05,0.0,0 STARLINK-3042,1 49142U 21082N   24119.51702842 -.00001616  00000-0 -12774-3 0  9999,2 49142  69.9996 169.4135 0003050 268.3875  91.6935 14.98319171145081,6950.226,96.108,574.211,569.972,0.0
49142.0,STARLINK-3042,PAYLOAD,2024-04-28 20:25:11,14.983211,0.0003056,69.9996,168.5719,268.1732,91.9077,-0.00011914,-1.514e-05,0.0,0 STARLINK-3042,1 49142U 21082N   24119.85082845 -.00001514  00000-0 -11914-3 0  9992,2 49142  69.9996 168.5719 0003056 268.1732  91.9077 14.98321100145136,6950.22,96.108,574.209,569.961,0.0
49142.0,STARLINK-3042,PAYLOAD,2024-04-29 04:25:51,14.98344626,0.0002993,69.9991,167.7302,269.0543,91.0273,-0.00046602,-5.651e-05,0.0,0 STARLINK-3042,1 49142U 21082N   24120.18462446 -.00005651  00000-0 -46602-3 0  9997,2 49142  69.9991 167.7302 0002993 269.0543  91.0273 14.98344626145181,6950.148,96.106,574.093,569.932,0.0
49142.0,STARLINK-3042,PAYLOAD,2024-04-29 12:26:31,14.98340653,0.0003014,69.9993,166.8886,269.1143,90.967,-0.00044947,-5.453e-05,0.0,0 STARLINK-3042,1 49142U 21082N   24120.51842464 -.00005453  00000-0 -44947-3 0  9996,2 49142  69.9993 166.8886 0003014 269.1143  90.9670 14.98340653145233,6950.16,96.106,574.12,569.93,0.0
49142.0,STARLINK-3042,PAYLOAD,2024-04-30 04:27:53,14.98312746,0.000304,69.9989,165.2051,267.4855,92.5956,0.00013671,1.538e-05,0.0,0 STARLINK-3042,1 49142U 21082N   24121.18603451  .00001538  00000-0  13671-3 0  9999,2 49142  69.9989 165.2051 0003040 267.4855  92.5956 14.98312746145333,6950.246,96.108,574.224,569.998,0.0
49142.0,STARLINK-3042,PAYLOAD,2024-04-30 12:28:33,14.98315246,0.0003082,69.9988,164.3633,267.9344,92.1462,0.00013016,1.46e-05,0.0,0 STARLINK-3042,1 49142U 21082N   24121.51983725  .00001460  00000-0  13016-3 0  9998,2 49142  69.9988 164.3633 0003082 267.9344  92.1462 14.98315246145383,6950.239,96.108,574.246,569.961,0.0
49142.0,STARLINK-3042,PAYLOAD,2024-04-30 20:29:14,14.98317386,0.0003074,69.9988,163.5217,267.7397,92.341,0.00012581,1.408e-05,0.0,0 STARLINK-3042,1 49142U 21082N   24121.85363921  .00001408  00000-0  12581-3 0  9993,2 49142  69.9988 163.5217 0003074 267.7397  92.3410 14.98317386145437,6950.232,96.108,574.233,569.96,0.0
49142.0,STARLINK-3042,PAYLOAD,2024-05-01 04:29:54,14.98320473,0.00031,69.9987,162.6801,268.0138,92.0666,0.00013118,1.472e-05,0.0,0 STARLINK-3042,1 49142U 21082N   24122.18743993  .00001472  00000-0  13118-3 0  9999,2 49142  69.9987 162.6801 0003100 268.0138  92.0666 14.98320473145488,6950.222,96.108,574.242,569.933,0.0
49142.0,STARLINK-3042,PAYLOAD,2024-05-01 06:06:02,14.98320457,0.0003104,69.9986,162.5118,268.0378,92.0426,0.00012924,1.449e-05,0.0,0 STARLINK-3042,1 49142U 21082N   24122.25420050  .00001449  00000-0  12924-3 0  9991,2 49142  69.9986 162.5118 0003104 268.0378  92.0426 14.98320457145494,6950.222,96.108,574.245,569.93,0.0
49142.0,STARLINK-3042,PAYLOAD,2024-05-01 20:31:15,14.98323842,0.0003128,69.9985,160.9972,268.6857,91.3944,0.00011959,1.334e-05,0.0,0 STARLINK-3042,1 49142U 21082N   24122.85504162  .00001334  00000-0  11959-3 0  9994,2 49142  69.9985 160.9972 0003128 268.6857  91.3944 14.98323842145585,6950.212,96.107,574.251,569.903,0.0
49142.0,STARLINK-3042,PAYLOAD,2024-05-02 04:31:55,14.98326446,0.000313,69.9985,160.1554,268.3959,91.6842,0.00011379,1.265e-05,0.0,0 STARLINK-3042,1 49142U 21082N   24123.18884156  .00001265  00000-0  11379-3 0  9994,2 49142  69.9985 160.1554 0003130 268.3959  91.6842 14.98326446145635,6950.204,96.107,574.244,569.893,0.0
49142.0,STARLINK-3042,PAYLOAD,2024-05-02 12:32:36,14.98327941,0.0003133,69.9985,159.3138,268.5051,91.5749,0.00012098,1.351e-05,0.0,0 STARLINK-3042,1 49142U 21082N   24123.52264136  .00001351  00000-0  12098-3 0  9997,2 49142  69.9985 159.3138 0003133 268.5051  91.5749 14.98327941145682,6950.199,96.107,574.242,569.887,0.0
49142.0,STARLINK-3042,PAYLOAD,2024-05-03 04:33:56,14.98332842,0.0003169,69.9982,157.6303,267.1638,92.9158,0.00012782,1.433e-05,0.0,0 STARLINK-3042,1 49142U 21082N   24124.19023834  .00001433  00000-0  12782-3 0  9990,2 49142  69.9982 157.6303 0003169 267.1638  92.9158 14.98332842145785,6950.184,96.107,574.252,569.847,0.0
49142.0,STARLINK-3042,PAYLOAD,2024-05-03 12:34:36,14.98335044,0.0003142,69.9984,156.7889,268.2642,91.8157,0.00014031,1.582e-05,0.0,0 STARLINK-3042,1 49142U 21082N   24124.52403643  .00001582  00000-0  14031-3 0  9991,2 49142  69.9984 156.7889 0003142 268.2642  91.8157 14.98335044145834,6950.177,96.107,574.226,569.859,0.0
49142.0,STARLINK-3042,PAYLOAD,2024-05-03 18:59:08,14.98337238,0.0003137,69.9984,156.1155,267.8812,92.1988,0.0001318,1.48e-05,0.0,0 STARLINK-3042,1 49142U 21082N   24124.79107430  .00001480  00000-0  13180-3 0  9996,2 49142  69.9984 156.1155 0003137 267.8812  92.1988 14.98337238145879,6950.171,96.107,574.216,569.855,0.0
49142.0,STARLINK-3042,PAYLOAD,2024-05-04 04:35:56,14.98339214,0.0003162,69.9982,155.1055,267.3646,92.7151,0.00014379,1.623e-05,0.0,0 STARLINK-3042,1 49142U 21082N   24125.19163135  .00001623  00000-0  14379-3 0  9995,2 49142  69.9982 155.1055 0003162 267.3646  92.7151 14.98339214145934,6950.164,96.106,574.227,569.832,0.0
49142.0,STARLINK-3042,PAYLOAD,2024-05-05 04:37:57,14.98344774,0.0003199,69.9981,152.5806,268.3955,91.6838,0.00012713,1.425e-05,0.0,0 STARLINK-3042,1 49142U 21082N   24126.19302287  .00001425  00000-0  12713-3 0  9999,2 49142  69.9981 152.5806 0003199 268.3955  91.6838 14.98344774146086,6950.147,96.106,574.236,569.789,0.0
49142.0,STARLINK-3042,PAYLOAD,2024-05-05 12:38:37,14.98346254,0.0003193,69.9982,151.739,268.5256,91.5537,0.00013556,1.525e-05,0.0,0 STARLINK-3042,1 49142U 21082N   24126.52681917  .00001525  00000-0  13556-3 0  9993,2 49142  69.9982 151.7390 0003193 268.5256  91.5537 14.98346254146132,6950.143,96.106,574.227,569.788,0.0
49142.0,STARLINK-3042,PAYLOAD,2024-05-05 19:03:09,14.98341605,0.0003226,69.9982,151.0657,269.9412,90.1377,7.1661e-05,7.62e-06,0.0,0 STARLINK-3042,1 49142U 21082N   24126.79386121  .00000762  00000-0  71661-4 0  9995,2 49142  69.9982 151.0657 0003226 269.9412  90.1377 14.98341605146173,6950.157,96.106,574.264,569.78,0.0
49142.0,STARLINK-3042,PAYLOAD,2024-05-06 04:39:58,14.9833655,0.0003164,69.9983,150.056,269.9138,90.1659,-1.4931e-05,-2.71e-06,0.0,0 STARLINK-3042,1 49142U 21082N   24127.19442375 -.00000271  00000-0 -14931-4 0  9998,2 49142  69.9983 150.0560 0003164 269.9138  90.1659 14.98336550146235,6950.173,96.107,574.237,569.839,0.0
49142.0,STARLINK-3042,PAYLOAD,2024-05-06 11:04:30,14.98336364,0.0003153,69.9984,149.383,270.5688,89.511,-2.8264e-05,-4.3e-06,0.0,0 STARLINK-3042,1 49142U 21082N   24127.46146234 -.00000430  00000-0 -28264-4 0  9994,2 49142  69.9984 149.3830 0003153 270.5688  89.5110 14.98336364146274,6950.173,96.107,574.23,569.847,0.0
49142.0,STARLINK-3042,PAYLOAD,2024-05-06 19:05:10,14.98337097,0.0003135,69.9984,148.5406,270.3353,89.7447,-1.6412e-05,-2.89e-06,0.0,0 STARLINK-3042,1 49142U 21082N   24127.79526013 -.00000289  00000-0 -16412-4 0  9991,2 49142  69.9984 148.5406 0003135 270.3353  89.7447 14.98337097146326,6950.171,96.107,574.215,569.857,0.0
49142.0,STARLINK-3042,PAYLOAD,2024-05-07 04:41:58,14.98338096,0.0003142,69.9983,147.5306,270.1833,89.8966,6.2083e-06,-1.9e-07,0.0,0 STARLINK-3042,1 49142U 21082N   24128.19581740 -.00000019  00000-0  62083-5 0  9990,2 49142  69.9983 147.5306 0003142 270.1833  89.8966 14.98338096146385,6950.168,96.106,574.217,569.849,0.0
49142.0,STARLINK-3042,PAYLOAD,2024-05-07 11:06:30,14.98337528,0.000316,69.9983,146.8574,270.425,89.6547,-2.6108e-06,-1.24e-06,0.0,0 STARLINK-3042,1 49142U 21082N   24128.46285658 -.00000124  00000-0 -26108-5 0  9995,2 49142  69.9983 146.8574 0003160 270.4250  89.6547 14.98337528146427,6950.17,96.107,574.231,569.838,0.0
49142.0,STARLINK-3042,PAYLOAD,2024-05-08 04:43:59,14.98332089,0.0003203,69.9982,145.0058,270.1868,89.8924,8.1778e-05,8.83e-06,0.0,0 STARLINK-3042,1 49142U 21082N   24129.19721605  .00000883  00000-0  81778-4 0  9996,2 49142  69.9982 145.0058 0003203 270.1868  89.8924 14.98332089146534,6950.186,96.107,574.278,569.825,0.0
49142.0,STARLINK-3042,PAYLOAD,2024-05-08 11:08:31,14.98333756,0.0003222,69.9982,144.3326,270.3328,89.7462,8.1634e-05,8.81e-06,0.0,0 STARLINK-3042,1 49142U 21082N   24129.46425468  .00000881  00000-0  81634-4 0  9993,2 49142  69.9982 144.3326 0003222 270.3328  89.7462 14.98333756146570,6950.181,96.107,574.286,569.807,0.0
